[{"OBJECT_NAME":"STARLINK-34504","OBJECT_ID":"2025-137G","EPOCH":"2026-03-09T23:27:44.697024","MEAN_MOTION":15.30210515,"ECCENTRICITY":8.455e-5,"INCLINATION":53.1584,"RA_OF_ASC_NODE":334.2838,"ARG_OF_PERICENTER":119.8087,"MEAN_ANOMALY":240.2998,"EPHEMERIS_TYPE":0,"CLASSIFICATION_TYPE":"U","NORAD_CAT_ID":64600,"ELEMENT_SET_NO":999,"REV_AT_EPOCH":4077,"BSTAR":0.00082856107,"MEAN_MOTION_DOT":0.00024269,"MEAN_MOTION_DDOT":0},{"OBJECT_NAME":"GLOBAL-34","OBJECT_ID":"2026-043A","EPOCH":"2026-03-09T11:23:30.999840","MEAN_MOTION":15.31488019,"ECCENTRICITY":0.00068849,"INCLINATION":42.0215,"RA_OF_ASC_NODE":76.7399,"ARG_OF_PERICENTER":289.2632,"MEAN_ANOMALY":70.746,"EPHEMERIS_TYPE":0,"CLASSIFICATION_TYPE":"U","NORAD_CAT_ID":68098,"ELEMENT_SET_NO":999,"REV_AT_EPOCH":53,"BSTAR":0.00045822046,"MEAN_MOTION_DOT":0.00014018,"MEAN_MOTION_DDOT":0}]
